H1 CPF  1  MCC 2022 10  4 15  7771 larets
H2  0304206 5557    27944 2022 10 03 23 45 00 2022 10 08 23 57 00   180 1 1  0 0 0
H9
10 0 59860 22140.000000 0      2045372.991     -1583555.098     -6569316.434
10 0 59860 22320.000000 0      2561124.205     -2707990.554     -5996169.078
10 0 59860 22500.000000 0      2955540.986     -3746091.576     -5203829.137
10 0 59860 22680.000000 0      3216996.828     -4656696.444     -4221053.298
10 0 59860 22860.000000 0      3339691.159     -5402965.518     -3083633.013
10 0 59860 23040.000000 0      3323760.115     -5953918.349     -1833127.810
10 0 59860 23220.000000 0      3175134.256     -6285775.773      -515349.816
10 0 59860 23400.000000 0      2905142.163     -6383028.501       821345.156
10 0 59860 23580.000000 0      2529874.332     -6239168.173      2127884.223
10 0 59860 23760.000000 0      2069343.149     -5857040.376      3356339.466
10 0 59860 23940.000000 0      1546481.778     -5248795.584      4461732.545
10 0 59860 24120.000000 0       986041.540     -4435456.268      5403699.718
10 0 59860 24300.000000 0       413446.496     -3446127.469      6147958.902
10 0 59860 24480.000000 0      -146341.204     -2316888.142      6667521.803
10 0 59860 24660.000000 0      -669888.916     -1089430.040      6943614.722
10 0 59860 24840.000000 0     -1136253.496       190496.564      6966306.391
10 0 59860 25020.000000 0     -1527803.522      1474785.478      6734833.456
10 0 59860 25200.000000 0     -1830876.690      2714767.351      6257616.506
10 0 59860 25380.000000 0     -2036253.292      3863037.435      5551971.778
10 0 59860 25560.000000 0     -2139432.159      4875264.082      4643523.193
10 0 59860 25740.000000 0     -2140701.256      5711920.612      3565321.598
10 0 59860 25920.000000 0     -2044997.866      6339870.750      2356681.059
10 0 59860 26100.000000 0     -1861562.674      6733733.408      1061763.397
10 0 59860 26280.000000 0     -1603398.178      6876960.725      -272042.090
10 0 59860 26460.000000 0     -1286557.174      6762570.446     -1595882.845
10 0 59860 26640.000000 0      -929295.211      6393483.701     -2861284.173
10 0 59860 26820.000000 0      -551133.291      5782435.718     -4021967.188
10 0 59860 27000.000000 0      -171885.334      4951489.681     -5035558.350
10 0 59860 27180.000000 0       189302.853      3931182.612     -5865133.136
10 0 59860 27360.000000 0       514858.197      2759345.827     -6480535.940
10 0 59860 27540.000000 0       789584.614      1479656.569     -6859432.312
10 0 59860 27720.000000 0      1001334.162       139991.639     -6988071.246
10 0 59860 27900.000000 0      1141521.613     -1209359.766     -6861751.096
10 0 59860 28080.000000 0      1205464.893     -2517565.886     -6484978.912
10 0 59860 28260.000000 0      1192543.418     -3735143.918     -5871329.577
10 0 59860 28440.000000 0      1106168.572     -4815831.598     -5043005.745
10 0 59860 28620.000000 0       953565.401     -5718370.262     -4030087.166
10 0 59860 28800.000000 0       745372.443     -6408131.291     -2869487.823
10 0 59860 28980.000000 0       495072.890     -6858515.734     -1603637.808
10 0 59860 29160.000000 0       218282.891     -7052055.293      -278928.769
10 0 59860 29340.000000 0       -68071.419     -6981147.444      1056021.018
10 0 59860 29520.000000 0      -346644.790     -6648381.809      2352202.788
10 0 59860 29700.000000 0      -600583.944     -6066437.897      3562076.240
10 0 59860 29880.000000 0      -814408.263     -5257551.073      4641360.159
10 0 59860 30060.000000 0      -974814.700     -4252590.825      5550666.037
10 0 59860 30240.000000 0     -1071366.560     -3089810.476      6256921.447
10 0 59860 30420.000000 0     -1097034.735     -1813325.946      6734533.406
10 0 59860 30600.000000 0     -1048568.989      -471406.036      6966257.139
10 0 59860 30780.000000 0      -926691.747       885359.148      6943770.925
10 0 59860 30960.000000 0      -736105.456      2205954.811      6667945.855
10 0 59860 31140.000000 0      -485309.880      3440841.653      6148808.665
10 0 59860 31320.000000 0      -186239.337      4543801.956      5405199.688
10 0 59860 31500.000000 0       146267.892      5473675.656      4464130.939
10 0 59860 31680.000000 0       495151.447      6195927.899      3359851.317
10 0 59860 31860.000000 0       841934.164      6683983.038      2132642.283
10 0 59860 32040.000000 0      1167621.945      6920275.606       827360.909
10 0 59860 32220.000000 0      1453650.971      6896932.934      -508219.149
10 0 59860 32400.000000 0      1682833.688      6616062.544     -1825190.070
10 0 59860 32580.000000 0      1840252.228      6089629.144     -3075341.240
10 0 59860 32760.000000 0      1914054.697      5338927.824     -4212961.872
10 0 59860 32940.000000 0      1896113.603      4393676.152     -5196535.060
10 0 59860 33120.000000 0      1782512.612      3290778.120     -5990246.134
10 0 59860 33300.000000 0      1573841.157      2072832.589     -6565255.091
10 0 59860 33480.000000 0      1275285.687       786455.318     -6900697.213
10 0 59860 33660.000000 0       896519.004      -519511.585     -6984394.255
10 0 59860 33840.000000 0       451388.265     -1795843.910     -6813266.007
10 0 59860 34020.000000 0       -42585.924     -2994768.562     -6393436.109
10 0 59860 34200.000000 0      -564884.771     -4071736.876     -5740041.879
10 0 59860 34380.000000 0     -1092823.056     -4987089.116     -4876735.676
10 0 59860 34560.000000 0     -1602508.890     -5707549.784     -3834885.077
10 0 59860 34740.000000 0     -2069899.602     -6207496.729     -2652478.996
10 0 59860 34920.000000 0     -2471906.478     -6469941.702     -1372765.384
10 0 59860 35100.000000 0     -2787496.032     -6487172.592       -42661.386
10 0 59860 35280.000000 0     -2998730.263     -6261012.227      1289007.115
10 0 59860 35460.000000 0     -3091687.517     -5802670.854      2573355.310
10 0 59860 35640.000000 0     -3057213.040     -5132200.037      3763291.081
10 0 59860 35820.000000 0     -2891459.090     -4277581.551      4815280.299
10 0 59860 36000.000000 0     -2596191.891     -3273506.592      5690950.085
10 0 59860 36180.000000 0     -2178853.568     -2159911.490      6358468.893
10 0 59860 36360.000000 0     -1652378.372      -980349.842      6793659.914
10 0 59860 36540.000000 0     -1034777.125       219730.913      6980824.924
10 0 59860 36720.000000 0      -348512.273      1394738.708      6913258.429
10 0 59860 36900.000000 0       380316.872      2500651.885      6593463.063
10 0 59860 37080.000000 0      1122958.672      3496652.975      6033057.851
10 0 59860 37260.000000 0      1849128.632      4346628.220      5252382.738
10 0 59860 37440.000000 0      2528229.451      5020491.070      4279805.338
10 0 59860 37620.000000 0      3130630.972      5495278.985      3150736.215
10 0 59860 37800.000000 0      3628958.020      5755981.547      1906377.471
10 0 59860 37980.000000 0      3999329.622      5796058.646       592224.627
10 0 59860 38160.000000 0      4222477.820      5617606.713      -743616.567
10 0 59860 38340.000000 0      4284693.446      5231164.398     -2052228.155
10 0 59860 38520.000000 0      4178546.970      4655167.090     -3285712.995
10 0 59860 38700.000000 0      3903343.276      3915078.420     -4398984.555
10 0 59860 38880.000000 0      3465288.969      3042245.670     -5351429.664
10 0 59860 39060.000000 0      2877371.223      2072544.188     -6108379.758
10 0 59860 39240.000000 0      2158955.262      1044877.818     -6642338.954
10 0 59860 39420.000000 0      1335125.381         -392.840     -6933932.820
10 0 59860 39600.000000 0       435801.111     -1023028.611     -6972567.148
10 0 59860 39780.000000 0      -505347.358     -1984446.564     -6756786.824
10 0 59860 39960.000000 0     -1452144.649     -2849158.056     -6294330.513
10 0 59860 40140.000000 0     -2367284.071     -3586074.886     -5601884.080
10 0 59860 40320.000000 0     -3213786.177     -4169640.464     -4704529.441
10 0 59860 40500.000000 0     -3956499.718     -4580750.743     -3634893.510
10 0 59860 40680.000000 0     -4563581.951     -4807420.889     -2432003.151
10 0 59860 40860.000000 0     -5007891.356     -4845164.084     -1139878.099
10 0 59860 41040.000000 0     -5268222.379     -4697057.822       194094.241
10 0 59860 41220.000000 0     -5330314.183     -4373489.477      1520938.566
10 0 59860 41400.000000 0     -5187573.705     -3891586.983      2791950.170
10 0 59860 41580.000000 0     -4841470.258     -3274362.205      3960538.781
10 0 59860 41760.000000 0     -4301586.319     -2549619.589      4983971.709
10 0 59860 41940.000000 0     -3585325.633     -1748690.165      5824940.860
10 0 59860 42120.000000 0     -2717307.130      -905064.234      6452894.961
10 0 59860 42300.000000 0     -1728474.760       -52983.003      6845107.476
10 0 59860 42480.000000 0      -654960.085       773950.038      6987442.989
10 0 59860 42660.000000 0       463245.894      1544078.412      6874818.905
10 0 59860 42840.000000 0      1583772.385      2228890.153      6511366.030
10 0 59860 43020.000000 0      2663457.748      2804063.671      5910281.614
10 0 59860 43200.000000 0      3659998.436      3250330.155      5093383.090
10 0 59860 43380.000000 0      4533608.347      3554129.433      4090362.302
10 0 59860 43560.000000 0      5248624.240      3708032.899      2937754.122
10 0 59860 43740.000000 0      5775000.160      3710915.507      1677635.312
10 0 59860 43920.000000 0      6089605.656      3567859.412       356091.021
10 0 59860 44100.000000 0      6177265.281      3289793.727      -978493.876
10 0 59860 44280.000000 0      6031477.796      2892881.204     -2277246.832
10 0 59860 44460.000000 0      5654776.088      2397687.047     -3492638.711
10 0 59860 44640.000000 0      5058713.062      1828174.353     -4580255.778
10 0 59860 44820.000000 0      4263473.865      1210574.859     -5500436.552
10 0 59860 45000.000000 0      3297138.705       572198.501     -6219700.093
99
